<?xml version="1.0" encoding="UTF-8"?>
<gpx version="1.1" creator="Test GPX">
  <trk>
    <name>Parcours Test</name>
    <trkseg>
      <trkpt lat="48.8566" lon="2.3522">
        <ele>35</ele>
        <time>2024-01-01T10:00:00Z</time>
      </trkpt>
      <trkpt lat="48.8570" lon="2.3530">
        <ele>36</ele>
        <time>2024-01-01T10:01:00Z</time>
      </trkpt>
      <trkpt lat="48.8575" lon="2.3540">
        <ele>37</ele>
        <time>2024-01-01T10:02:00Z</time>
      </trkpt>
      <trkpt lat="48.8580" lon="2.3550">
        <ele>38</ele>
        <time>2024-01-01T10:03:00Z</time>
      </trkpt>
      <trkpt lat="48.8585" lon="2.3560">
        <ele>39</ele>
        <time>2024-01-01T10:04:00Z</time>
      </trkpt>
    </trkseg>
  </trk>
</gpx>
